[{"OBJECT_NAME":"IRIDIUM 136","OBJECT_ID":"2017-061H","EPOCH":"2026-03-09T23:21:02.652768","MEAN_MOTION":14.34217428,"ECCENTRICITY":0.00020185,"INCLINATION":86.3917,"RA_OF_ASC_NODE":66.7307,"ARG_OF_PERICENTER":86.502,"MEAN_ANOMALY":273.6407,"EPHEMERIS_TYPE":0,"CLASSIFICATION_TYPE":"U","NORAD_CAT_ID":42962,"ELEMENT_SET_NO":999,"REV_AT_EPOCH":44061,"BSTAR":-6.150317e-6,"MEAN_MOTION_DOT":3.0e-8,"MEAN_MOTION_DDOT":0},{"OBJECT_NAME":"NOAA 16 DEB","OBJECT_ID":"2000-055MH","EPOCH":"2026-03-08T16:52:13.701504","MEAN_MOTION":14.31351969,"ECCENTRICITY":0.00157096,"INCLINATION":98.7568,"RA_OF_ASC_NODE":166.6814,"ARG_OF_PERICENTER":259.9354,"MEAN_ANOMALY":100.0056,"EPHEMERIS_TYPE":0,"CLASSIFICATION_TYPE":"U","NORAD_CAT_ID":41509,"ELEMENT_SET_NO":999,"REV_AT_EPOCH":51540,"BSTAR":0.002351783,"MEAN_MOTION_DOT":6.198e-5,"MEAN_MOTION_DDOT":0}]
